{
  "type": "FeatureCollection",
  "features": [
    {
      "type": "Feature",
      "properties": {
        "norad_id": 34750,
        "name": "COSMOS 2251 DEB",
        "group": "cosmos-2251-debris",
        "lat": -38.327157117798805,
        "lon": -168.51027059200146,
        "alt_km": 721.2076222933192,
        "timestamp": "2025-12-11T07:02:24.125979+00:00",
        "meta_object_name": "COSMOS 2251 DEB",
        "meta_object_id": "1993-036ZU",
        "meta_epoch": "2025-12-10T21:25:06.830688",
        "meta_mean_motion": 14.61290413,
        "meta_eccentricity": 0.00389225,
        "meta_inclination": 74.1083,
        "meta_ra_of_asc_node": 205.2679,
        "meta_arg_of_pericenter": 158.9886,
        "meta_mean_anomaly": 212.718,
        "meta_ephemeris_type": 0,
        "meta_classification_type": "U",
        "meta_norad_cat_id": 34750,
        "meta_element_set_no": 999,
        "meta_rev_at_epoch": 88204,
        "meta_bstar": 0.0015282397,
        "meta_mean_motion_dot": 7.604e-05,
        "meta_mean_motion_ddot": 0,
        "tle_line1": "1 34750U 93036ZU  25344.89244017  .00007604  00000+0  15282-2 0  9999",
        "tle_line2": "2 34750  74.1083 205.2679 0038922 158.9886 212.7180 14.61290413882048"
      },
      "geometry": {
        "type": "Point",
        "coordinates": [
          -168.51027059200146,
          -38.327157117798805
        ]
      }
    },
    {
      "type": "Feature",
      "properties": {
        "norad_id": 34752,
        "name": "COSMOS 2251 DEB",
        "group": "cosmos-2251-debris",
        "lat": -71.42172528735858,
        "lon": -117.91797029502192,
        "alt_km": 594.5540383676998,
        "timestamp": "2025-12-11T07:02:24.125989+00:00",
        "meta_object_name": "COSMOS 2251 DEB",
        "meta_object_id": "1993-036ZW",
        "meta_epoch": "2025-12-10T18:40:49.848672",
        "meta_mean_motion": 14.99853452,
        "meta_eccentricity": 0.00478777,
        "meta_inclination": 74.0135,
        "meta_ra_of_asc_node": 4.5963,
        "meta_arg_of_pericenter": 133.6901,
        "meta_mean_anomaly": 226.8269,
        "meta_ephemeris_type": 0,
        "meta_classification_type": "U",
        "meta_norad_cat_id": 34752,
        "meta_element_set_no": 999,
        "meta_rev_at_epoch": 89820,
        "meta_bstar": 0.0013736037,
        "meta_mean_motion_dot": 0.00017439,
        "meta_mean_motion_ddot": 0,
        "tle_line1": "1 34752U 93036ZW  25344.77835473  .00017439  00000+0  13736-2 0  9999",
        "tle_line2": "2 34752  74.0135   4.5963 0047877 133.6901 226.8269 14.99853452898208"
      },
      "geometry": {
        "type": "Point",
        "coordinates": [
          -117.91797029502192,
          -71.42172528735858
        ]
      }
    },
    {
      "type": "Feature",
      "properties": {
        "norad_id": 34754,
        "name": "COSMOS 2251 DEB",
        "group": "cosmos-2251-debris",
        "lat": -2.8282236123551234,
        "lon": 51.088642375131,
        "alt_km": 780.1019317811833,
        "timestamp": "2025-12-11T07:02:24.125999+00:00",
        "meta_object_name": "COSMOS 2251 DEB",
        "meta_object_id": "1993-036ZY",
        "meta_epoch": "2025-12-10T20:45:49.933728",
        "meta_mean_motion": 14.4047727,
        "meta_eccentricity": 0.00294891,
        "meta_inclination": 74.0305,
        "meta_ra_of_asc_node": 231.0698,
        "meta_arg_of_pericenter": 347.5348,
        "meta_mean_anomaly": 135.8942,
        "meta_ephemeris_type": 0,
        "meta_classification_type": "U",
        "meta_norad_cat_id": 34754,
        "meta_element_set_no": 999,
        "meta_rev_at_epoch": 88106,
        "meta_bstar": 0.00031602414,
        "meta_mean_motion_dot": 9.84e-06,
        "meta_mean_motion_ddot": 0,
        "tle_line1": "1 34754U 93036ZY  25344.86516127  .00000984  00000+0  31602-3 0  9993",
        "tle_line2": "2 34754  74.0305 231.0698 0029489 347.5348 135.8942 14.40477270881060"
      },
      "geometry": {
        "type": "Point",
        "coordinates": [
          51.088642375131,
          -2.8282236123551234
        ]
      }
    },
    {
      "type": "Feature",
      "properties": {
        "norad_id": 34755,
        "name": "COSMOS 2251 DEB",
        "group": "cosmos-2251-debris",
        "lat": 41.552919024889846,
        "lon": -52.84311673664862,
        "alt_km": 1061.0048612526434,
        "timestamp": "2025-12-11T07:02:24.126010+00:00",
        "meta_object_name": "COSMOS 2251 DEB",
        "meta_object_id": "1993-036ZZ",
        "meta_epoch": "2025-12-10T13:38:40.081344",
        "meta_mean_motion": 13.50549672,
        "meta_eccentricity": 0.0408338,
        "meta_inclination": 73.9258,
        "meta_ra_of_asc_node": 293.5146,
        "meta_arg_of_pericenter": 313.7179,
        "meta_mean_anomaly": 162.5908,
        "meta_ephemeris_type": 0,
        "meta_classification_type": "U",
        "meta_norad_cat_id": 34755,
        "meta_element_set_no": 999,
        "meta_rev_at_epoch": 82494,
        "meta_bstar": 0.0024737,
        "meta_mean_motion_dot": 2.646e-05,
        "meta_mean_motion_ddot": 0,
        "tle_line1": "1 34755U 93036ZZ  25344.56851946  .00002646  00000+0  24737-2 0  9999",
        "tle_line2": "2 34755  73.9258 293.5146 0408338 313.7179 162.5908 13.50549672824947"
      },
      "geometry": {
        "type": "Point",
        "coordinates": [
          -52.84311673664862,
          41.552919024889846
        ]
      }
    },
    {
      "type": "Feature",
      "properties": {
        "norad_id": 34756,
        "name": "COSMOS 2251 DEB",
        "group": "cosmos-2251-debris",
        "lat": -33.67347600901786,
        "lon": -62.231979672721195,
        "alt_km": 1165.681339140011,
        "timestamp": "2025-12-11T07:02:24.126020+00:00",
        "meta_object_name": "COSMOS 2251 DEB",
        "meta_object_id": "1993-036AAA",
        "meta_epoch": "2025-12-08T18:16:00.051744",
        "meta_mean_motion": 13.67230677,
        "meta_eccentricity": 0.03448148,
        "meta_inclination": 74.0023,
        "meta_ra_of_asc_node": 110.912,
        "meta_arg_of_pericenter": 347.5917,
        "meta_mean_anomaly": 11.686,
        "meta_ephemeris_type": 0,
        "meta_classification_type": "U",
        "meta_norad_cat_id": 34756,
        "meta_element_set_no": 999,
        "meta_rev_at_epoch": 83367,
        "meta_bstar": 0.0014333065,
        "meta_mean_motion_dot": 1.792e-05,
        "meta_mean_motion_ddot": 0,
        "tle_line1": "1 34756U 93036AAA 25342.76111171  .00001792  00000+0  14333-2 0  9991",
        "tle_line2": "2 34756  74.0023 110.9120 0344814 347.5917  11.6860 13.67230677833678"
      },
      "geometry": {
        "type": "Point",
        "coordinates": [
          -62.231979672721195,
          -33.67347600901786
        ]
      }
    },
    {
      "type": "Feature",
      "properties": {
        "norad_id": 34758,
        "name": "COSMOS 2251 DEB",
        "group": "cosmos-2251-debris",
        "lat": 14.563463065685825,
        "lon": -53.930608472288085,
        "alt_km": 857.5071979828681,
        "timestamp": "2025-12-11T07:02:24.126031+00:00",
        "meta_object_name": "COSMOS 2251 DEB",
        "meta_object_id": "1993-036AAC",
        "meta_epoch": "2025-12-10T20:21:41.248512",
        "meta_mean_motion": 13.5805924,
        "meta_eccentricity": 0.03810943,
        "meta_inclination": 74.1077,
        "meta_ra_of_asc_node": 302.5407,
        "meta_arg_of_pericenter": 66.7155,
        "meta_mean_anomaly": 297.3586,
        "meta_ephemeris_type": 0,
        "meta_classification_type": "U",
        "meta_norad_cat_id": 34758,
        "meta_element_set_no": 999,
        "meta_rev_at_epoch": 82884,
        "meta_bstar": 0.0017673151,
        "meta_mean_motion_dot": 2.036e-05,
        "meta_mean_motion_ddot": 0,
        "tle_line1": "1 34758U 93036AAC 25344.84839408  .00002036  00000+0  17673-2 0  9996",
        "tle_line2": "2 34758  74.1077 302.5407 0381094  66.7155 297.3586 13.58059240828848"
      },
      "geometry": {
        "type": "Point",
        "coordinates": [
          -53.930608472288085,
          14.563463065685825
        ]
      }
    },
    {
      "type": "Feature",
      "properties": {
        "norad_id": 34760,
        "name": "COSMOS 2251 DEB",
        "group": "cosmos-2251-debris",
        "lat": -49.316648139741005,
        "lon": -74.47221426696615,
        "alt_km": 787.5665509620212,
        "timestamp": "2025-12-11T07:02:24.126041+00:00",
        "meta_object_name": "COSMOS 2251 DEB",
        "meta_object_id": "1993-036AAE",
        "meta_epoch": "2025-12-10T21:16:27.204672",
        "meta_mean_motion": 14.19560791,
        "meta_eccentricity": 0.00967166,
        "meta_inclination": 74.0638,
        "meta_ra_of_asc_node": 305.6668,
        "meta_arg_of_pericenter": 358.1984,
        "meta_mean_anomaly": 32.0027,
        "meta_ephemeris_type": 0,
        "meta_classification_type": "U",
        "meta_norad_cat_id": 34760,
        "meta_element_set_no": 999,
        "meta_rev_at_epoch": 86662,
        "meta_bstar": 0.0010024147,
        "meta_mean_motion_dot": 2.191e-05,
        "meta_mean_motion_ddot": 0,
        "tle_line1": "1 34760U 93036AAE 25344.88642598  .00002191  00000+0  10024-2 0  9990",
        "tle_line2": "2 34760  74.0638 305.6668 0096716 358.1984  32.0027 14.19560791866626"
      },
      "geometry": {
        "type": "Point",
        "coordinates": [
          -74.47221426696615,
          -49.316648139741005
        ]
      }
    }
  ]
}